LEMUR-2-PETERG          
1 42841U 17042S   26068.48235713  .00023240  00000+0  81076-3 0  9993
2 42841  97.3980 253.6596 0003700 341.6938  18.4169 15.29611459473171
STARLINK-36043          
1 66901U 25283Z   26068.29867915  .00027855  00000+0  94931-3 0  9996
2 66901  53.1604  26.0249 0001138  71.0910 289.0214 15.30191817 15780
